{"type": "FeatureCollection", "features": [ {"type": "Feature", "properties": {"norad_id": 62339, "name": "GPS BIII-7  (PRN 01)", "group": "gps-ops", "lat": 53.830420313711876, "lon": 87.23318597736538, "alt_km": 20188.857116977266, "timestamp": "2025-12-26T11:25:45.454953+00:00", "meta": {"OBJECT_NAME": "GPS BIII-7  (PRN 01)", "OBJECT_ID": "2024-242A", "EPOCH": "2025-12-25T14:06:28.687392", "MEAN_MOTION": 2.00568026, "ECCENTRICITY": 0.0012842, "INCLINATION": 54.9198, "RA_OF_ASC_NODE": 341.2207, "ARG_OF_PERICENTER": 346.3867, "MEAN_ANOMALY": 191.38, "EPHEMERIS_TYPE": 0, "CLASSIFICATION_TYPE": "U", "NORAD_CAT_ID": 62339, "ELEMENT_SET_NO": 999, "REV_AT_EPOCH": 777, "BSTAR": 0, "MEAN_MOTION_DOT": -6e-07, "MEAN_MOTION_DDOT": 0}, "tle": {"line1": "1 62339U 24242A   25359.58783203 -.00000060  00000+0  00000+0 0  9992", "line2": "2 62339  54.9198 341.2207 0012842 346.3867 191.3800  2.00568026  7776"}}, "geometry": {"type": "Point", "coordinates": [87.23318597736538, 53.830420313711876]}}, {"type": "Feature", "properties": {"norad_id": 64202, "name": "GPS BIII-8  (PRN 21)", "group": "gps-ops", "lat": -51.20558101098891, "lon": -22.06366330786506, "alt_km": 20173.740301390677, "timestamp": "2025-12-26T11:25:45.454963+00:00", "meta": {"OBJECT_NAME": "GPS BIII-8  (PRN 21)", "OBJECT_ID": "2025-116A", "EPOCH": "2025-12-26T01:49:27.319296", "MEAN_MOTION": 2.00557298, "ECCENTRICITY": 0.0005992, "INCLINATION": 55.1151, "RA_OF_ASC_NODE": 38.103, "ARG_OF_PERICENTER": 311.0999, "MEAN_ANOMALY": 48.1681, "EPHEMERIS_TYPE": 0, "CLASSIFICATION_TYPE": "U", "NORAD_CAT_ID": 64202, "ELEMENT_SET_NO": 999, "REV_AT_EPOCH": 439, "BSTAR": 0, "MEAN_MOTION_DOT": -5.1e-07, "MEAN_MOTION_DDOT": 0}, "tle": {"line1": "1 64202U 25116A   25360.07601064 -.00000051  00000+0  00000+0 0  9994", "line2": "2 64202  55.1151  38.1030 0005992 311.0999  48.1681  2.00557298  4398"}}, "geometry": {"type": "Point", "coordinates": [-22.06366330786506, -51.20558101098891]}}]}